ORBCOMM-X               
1 21576U 91050C   25279.43752095  .00000580  00000+0  18457-3 0  9996
2 21576  98.3318 343.7112 0003252 190.5777 169.5346 14.43353647798169
ORBCOMM FM01            
1 23545U 95017A   25279.05484632  .00010366  00000+0  10376-2 0  9992
2 23545  69.9623 157.4231 0003474 196.7307 163.3735 14.91625596629036
ORBCOMM FM02            
1 23546U 95017B   25279.45940169  .00010007  00000+0  97215-3 0  9999
2 23546  69.9644 175.3859 0004619 184.1278 175.9841 14.92830380628750
ORBCOMM FM08            
1 25112U 97084A   25279.48501852  .00002351  00000+0  69043-3 0  9992
2 25112  45.0129 193.4481 0005854  78.6781 281.4728 14.46219410457485
ORBCOMM FM10            
1 25113U 97084B   25279.48300808  .00002279  00000+0  67368-3 0  9998
2 25113  45.0142 196.0385 0005181  40.5393 319.5843 14.45994230632624
ORBCOMM FM11            
1 25114U 97084C   25279.50694448  .00002396  00000+0  71001-3 0  9997
2 25114  45.0127 196.7599 0005933  43.9971 316.1351 14.45737582457588
ORBCOMM FM12            
1 25115U 97084D   25279.46788883  .00002286  00000+0  67923-3 0  9996
2 25115  45.0133 196.6865 0005118  38.1692 321.9522 14.45754925457373
ORBCOMM FM09            
1 25116U 97084E   25279.30287154  .00002089  00000+0  62585-3 0  9995
2 25116  45.0137 198.5266 0006516  30.9848 329.1387 14.45614284457552
